{"type": "FeatureCollection", "features": [ {"type": "Feature", "properties": {"norad_id": 33917, "name": "COSMOS 2251 DEB", "group": "cosmos-2251-debris", "lat": 70.09752562180368, "lon": -106.03071734827193, "alt_km": 1130.0789643111893, "timestamp": "2025-12-10T14:53:37.481117+00:00", "meta": {"OBJECT_NAME": "COSMOS 2251 DEB", "OBJECT_ID": "1993-036DW", "EPOCH": "2025-12-09T19:04:51.754080", "MEAN_MOTION": 13.69351867, "ECCENTRICITY": 0.03312322, "INCLINATION": 74.1068, "RA_OF_ASC_NODE": 127.2217, "ARG_OF_PERICENTER": 228.8261, "MEAN_ANOMALY": 128.3855, "EPHEMERIS_TYPE": 0, "CLASSIFICATION_TYPE": "U", "NORAD_CAT_ID": 33917, "ELEMENT_SET_NO": 999, "REV_AT_EPOCH": 83693, "BSTAR": 0.0011346691, "MEAN_MOTION_DOT": 1.426e-05, "MEAN_MOTION_DDOT": 0}, "tle": {"line1": "1 33917U 93036DW  25343.79504345  .00001426  00000+0  11347-2 0  9998", "line2": "2 33917  74.1068 127.2217 0331232 228.8261 128.3855 13.69351867836936"}}, "geometry": {"type": "Point", "coordinates": [-106.03071734827193, 70.09752562180368]}}, {"type": "Feature", "properties": {"norad_id": 33920, "name": "COSMOS 2251 DEB", "group": "cosmos-2251-debris", "lat": -46.783213587901386, "lon": 140.16079427404918, "alt_km": 700.5726916493495, "timestamp": "2025-12-10T14:53:37.481126+00:00", "meta": {"OBJECT_NAME": "COSMOS 2251 DEB", "OBJECT_ID": "1993-036DZ", "EPOCH": "2025-12-09T21:22:37.466688", "MEAN_MOTION": 14.58191466, "ECCENTRICITY": 0.00383772, "INCLINATION": 74.0619, "RA_OF_ASC_NODE": 303.8409, "ARG_OF_PERICENTER": 310.7658, "MEAN_ANOMALY": 49.0178, "EPHEMERIS_TYPE": 0, "CLASSIFICATION_TYPE": "U", "NORAD_CAT_ID": 33920, "ELEMENT_SET_NO": 999, "REV_AT_EPOCH": 88073, "BSTAR": 0.0030275677, "MEAN_MOTION_DOT": 0.0001411, "MEAN_MOTION_DDOT": 0}, "tle": {"line1": "1 33920U 93036DZ  25343.89071142  .00014110  00000+0  30276-2 0  9993", "line2": "2 33920  74.0619 303.8409 0038377 310.7658  49.0178 14.58191466880731"}}, "geometry": {"type": "Point", "coordinates": [140.16079427404918, -46.783213587901386]}}, {"type": "Feature", "properties": {"norad_id": 33922, "name": "COSMOS 2251 DEB", "group": "cosmos-2251-debris", "lat": 70.24968568285264, "lon": -155.44602110635375, "alt_km": 736.6339440474421, "timestamp": "2025-12-10T14:53:37.481136+00:00", "meta": {"OBJECT_NAME": "COSMOS 2251 DEB", "OBJECT_ID": "1993-036EB", "EPOCH": "2025-12-09T22:40:46.467264", "MEAN_MOTION": 14.49490495, "ECCENTRICITY": 0.00232636, "INCLINATION": 74.0466, "RA_OF_ASC_NODE": 153.0033, "ARG_OF_PERICENTER": 263.9368, "MEAN_ANOMALY": 250.3701, "EPHEMERIS_TYPE": 0, "CLASSIFICATION_TYPE": "U", "NORAD_CAT_ID": 33922, "ELEMENT_SET_NO": 999, "REV_AT_EPOCH": 88537, "BSTAR": 0.00064276731, "MEAN_MOTION_DOT": 2.444e-05, "MEAN_MOTION_DDOT": 0}, "tle": {"line1": "1 33922U 93036EB  25343.94498226  .00002444  00000+0  64277-3 0  9993", "line2": "2 33922  74.0466 153.0033 0023263 263.9368 250.3701 14.49490495885374"}}, "geometry": {"type": "Point", "coordinates": [-155.44602110635375, 70.24968568285264]}}, {"type": "Feature", "properties": {"norad_id": 33924, "name": "COSMOS 2251 DEB", "group": "cosmos-2251-debris", "lat": 47.07992225138662, "lon": -68.31526320273909, "alt_km": 1108.8141831050343, "timestamp": "2025-12-10T14:53:37.481145+00:00", "meta": {"OBJECT_NAME": "COSMOS 2251 DEB", "OBJECT_ID": "1993-036ED", "EPOCH": "2025-12-10T05:45:48.315456", "MEAN_MOTION": 13.50218836, "ECCENTRICITY": 0.04040485, "INCLINATION": 73.9141, "RA_OF_ASC_NODE": 274.2193, "ARG_OF_PERICENTER": 310.1115, "MEAN_ANOMALY": 46.522, "EPHEMERIS_TYPE": 0, "CLASSIFICATION_TYPE": "U", "NORAD_CAT_ID": 33924, "ELEMENT_SET_NO": 999, "REV_AT_EPOCH": 82705, "BSTAR": 0.0015538466, "MEAN_MOTION_DOT": 1.624e-05, "MEAN_MOTION_DDOT": 0}, "tle": {"line1": "1 33924U 93036ED  25344.24014254  .00001624  00000+0  15538-2 0  9998", "line2": "2 33924  73.9141 274.2193 0404048 310.1115  46.5220 13.50218836827056"}}, "geometry": {"type": "Point", "coordinates": [-68.31526320273909, 47.07992225138662]}}, {"type": "Feature", "properties": {"norad_id": 33928, "name": "COSMOS 2251 DEB", "group": "cosmos-2251-debris", "lat": -58.7343634248195, "lon": 28.204934838785526, "alt_km": 715.0196423829839, "timestamp": "2025-12-10T14:53:37.481154+00:00", "meta": {"OBJECT_NAME": "COSMOS 2251 DEB", "OBJECT_ID": "1993-036EH", "EPOCH": "2025-12-10T06:53:10.782240", "MEAN_MOTION": 14.47397473, "ECCENTRICITY": 0.00613475, "INCLINATION": 73.9261, "RA_OF_ASC_NODE": 57.1831, "ARG_OF_PERICENTER": 351.8204, "MEAN_ANOMALY": 8.1948, "EPHEMERIS_TYPE": 0, "CLASSIFICATION_TYPE": "U", "NORAD_CAT_ID": 33928, "ELEMENT_SET_NO": 999, "REV_AT_EPOCH": 88609, "BSTAR": 0.00038282196, "MEAN_MOTION_DOT": 1.408e-05, "MEAN_MOTION_DDOT": 0}, "tle": {"line1": "1 33928U 93036EH  25344.28693035  .00001408  00000+0  38282-3 0  9998", "line2": "2 33928  73.9261  57.1831 0061347 351.8204   8.1948 14.47397473886094"}}, "geometry": {"type": "Point", "coordinates": [28.204934838785526, -58.7343634248195]}}, {"type": "Feature", "properties": {"norad_id": 33932, "name": "COSMOS 2251 DEB", "group": "cosmos-2251-debris", "lat": 36.61579137098785, "lon": 127.54389451069112, "alt_km": 766.0999307717102, "timestamp": "2025-12-10T14:53:37.481164+00:00", "meta": {"OBJECT_NAME": "COSMOS 2251 DEB", "OBJECT_ID": "1993-036EM", "EPOCH": "2025-12-10T07:33:56.881152", "MEAN_MOTION": 14.3874652, "ECCENTRICITY": 0.00351716, "INCLINATION": 74.0347, "RA_OF_ASC_NODE": 320.3891, "ARG_OF_PERICENTER": 37.2408, "MEAN_ANOMALY": 323.1175, "EPHEMERIS_TYPE": 0, "CLASSIFICATION_TYPE": "U", "NORAD_CAT_ID": 33932, "ELEMENT_SET_NO": 999, "REV_AT_EPOCH": 87963, "BSTAR": 0.00077936235, "MEAN_MOTION_DOT": 2.385e-05, "MEAN_MOTION_DDOT": 0}, "tle": {"line1": "1 33932U 93036EM  25344.31524168  .00002385  00000+0  77936-3 0  9991", "line2": "2 33932  74.0347 320.3891 0035171  37.2408 323.1175 14.38746520879639"}}, "geometry": {"type": "Point", "coordinates": [127.54389451069112, 36.61579137098785]}}, {"type": "Feature", "properties": {"norad_id": 33933, "name": "COSMOS 2251 DEB", "group": "cosmos-2251-debris", "lat": 27.884657941078373, "lon": 72.67982608763691, "alt_km": 741.8386067755491, "timestamp": "2025-12-10T14:53:37.481173+00:00", "meta": {"OBJECT_NAME": "COSMOS 2251 DEB", "OBJECT_ID": "1993-036EN", "EPOCH": "2025-12-10T06:23:05.499168", "MEAN_MOTION": 14.33482642, "ECCENTRICITY": 0.007079, "INCLINATION": 74.0894, "RA_OF_ASC_NODE": 64.6449, "ARG_OF_PERICENTER": 73.7966, "MEAN_ANOMALY": 287.096, "EPHEMERIS_TYPE": 0, "CLASSIFICATION_TYPE": "U", "NORAD_CAT_ID": 33933, "ELEMENT_SET_NO": 999, "REV_AT_EPOCH": 87749, "BSTAR": 0.00044658179, "MEAN_MOTION_DOT": 1.244e-05, "MEAN_MOTION_DDOT": 0}, "tle": {"line1": "1 33933U 93036EN  25344.26603587  .00001244  00000+0  44658-3 0  9997", "line2": "2 33933  74.0894  64.6449 0070790  73.7966 287.0960 14.33482642877493"}}, "geometry": {"type": "Point", "coordinates": [72.67982608763691, 27.884657941078373]}}, {"type": "Feature", "properties": {"norad_id": 33934, "name": "COSMOS 2251 DEB", "group": "cosmos-2251-debris", "lat": -46.33975370891783, "lon": 87.15673670984147, "alt_km": 701.1805216175098, "timestamp": "2025-12-10T14:53:37.481182+00:00", "meta": {"OBJECT_NAME": "COSMOS 2251 DEB", "OBJECT_ID": "1993-036EP", "EPOCH": "2025-12-10T06:53:21.922656", "MEAN_MOTION": 14.59072812, "ECCENTRICITY": 0.00157615, "INCLINATION": 74.0382, "RA_OF_ASC_NODE": 105.2447, "ARG_OF_PERICENTER": 229.1114, "MEAN_ANOMALY": 130.8686, "EPHEMERIS_TYPE": 0, "CLASSIFICATION_TYPE": "U", "NORAD_CAT_ID": 33934, "ELEMENT_SET_NO": 999, "REV_AT_EPOCH": 88703, "BSTAR": 0.001581609, "MEAN_MOTION_DOT": 7.429e-05, "MEAN_MOTION_DDOT": 0}, "tle": {"line1": "1 33934U 93036EP  25344.28705929  .00007429  00000+0  15816-2 0  9997", "line2": "2 33934  74.0382 105.2447 0015761 229.1114 130.8686 14.59072812887038"}}, "geometry": {"type": "Point", "coordinates": [87.15673670984147, -46.33975370891783]}}, {"type": "Feature", "properties": {"norad_id": 33936, "name": "COSMOS 2251 DEB", "group": "cosmos-2251-debris", "lat": -47.83887984166054, "lon": -120.01512233534294, "alt_km": 682.3937107431775, "timestamp": "2025-12-10T14:53:37.481191+00:00", "meta": {"OBJECT_NAME": "COSMOS 2251 DEB", "OBJECT_ID": "1993-036ER", "EPOCH": "2025-12-10T05:37:16.559616", "MEAN_MOTION": 14.60245302, "ECCENTRICITY": 0.0027706, "INCLINATION": 74.0188, "RA_OF_ASC_NODE": 42.2724, "ARG_OF_PERICENTER": 198.2361, "MEAN_ANOMALY": 161.7815, "EPHEMERIS_TYPE": 0, "CLASSIFICATION_TYPE": "U", "NORAD_CAT_ID": 33936, "ELEMENT_SET_NO": 999, "REV_AT_EPOCH": 88853, "BSTAR": 0.0010813719, "MEAN_MOTION_DOT": 5.219e-05, "MEAN_MOTION_DDOT": 0}, "tle": {"line1": "1 33936U 93036ER  25344.23421944  .00005219  00000+0  10814-2 0  9994", "line2": "2 33936  74.0188  42.2724 0027706 198.2361 161.7815 14.60245302888535"}}, "geometry": {"type": "Point", "coordinates": [-120.01512233534294, -47.83887984166054]}}, {"type": "Feature", "properties": {"norad_id": 33938, "name": "COSMOS 2251 DEB", "group": "cosmos-2251-debris", "lat": -6.2140883050429725, "lon": 32.918180141786166, "alt_km": 743.0678031053976, "timestamp": "2025-12-10T14:53:37.481201+00:00", "meta": {"OBJECT_NAME": "COSMOS 2251 DEB", "OBJECT_ID": "1993-036ET", "EPOCH": "2025-12-10T02:58:24.616128", "MEAN_MOTION": 14.46780531, "ECCENTRICITY": 0.00168711, "INCLINATION": 74.045, "RA_OF_ASC_NODE": 212.0601, "ARG_OF_PERICENTER": 294.4089, "MEAN_ANOMALY": 186.2779, "EPHEMERIS_TYPE": 0, "CLASSIFICATION_TYPE": "U", "NORAD_CAT_ID": 33938, "ELEMENT_SET_NO": 999, "REV_AT_EPOCH": 88362, "BSTAR": 0.00058682745, "MEAN_MOTION_DOT": 2.102e-05, "MEAN_MOTION_DDOT": 0}, "tle": {"line1": "1 33938U 93036ET  25344.12389602  .00002102  00000+0  58683-3 0  9993", "line2": "2 33938  74.0450 212.0601 0016871 294.4089 186.2779 14.46780531883625"}}, "geometry": {"type": "Point", "coordinates": [32.918180141786166, -6.2140883050429725]}}]}